SKYSAT-C1               
1 41601U 16040C   26195.63369731  .00005168  00000+0  14606-3 0  9993
2 41601  96.9549 225.8712 0000317 324.3548  35.7676 15.36741961562081
LAPAN-A3                
1 41603U 16040E   26195.92907008  .00001860  00000+0  60148-4 0  9990
2 41603  97.1504 191.1681 0008258 277.4209  82.6095 15.33276828559063
GAOFEN-3                
1 41727U 16049A   26195.97391029 -.00000188  00000+0 -43785-4 0  9993
2 41727  98.4011 203.3404 0001764  85.5019 274.6373 14.42218154522652
SKYSAT-C4               
1 41771U 16058B   26195.59325766  .00010646  00000+0  19537-3 0  9990
2 41771  96.9161 216.2317 0003440 118.7398 241.4200 15.49423800549719
SKYSAT-C5               
1 41772U 16058C   26195.68933508  .00004205  00000+0  13127-3 0  9993
2 41772  97.0455 235.0967 0002493 161.8112 198.3222 15.33714814547968
SKYSAT-C2               
1 41773U 16058D   26195.96196732  .00007086  00000+0  16442-3 0  9998
2 41773  97.0155 217.0212 0001539 355.1441   4.9792 15.42676894549334
SKYSAT-C3               
1 41774U 16058E   26195.65458624  .00014766  00000+0  23229-3 0  9990
2 41774  96.8992 225.4634 0002490 132.7023 227.4442 15.53690773550378
ALSAT-1B                
1 41785U 16059C   26195.96905385 -.00000069  00000+0 -34143-5 0  9990
2 41785  97.7749 203.5339 0010295 130.4162 229.7946 14.72293344524660
PATHFINDER 1            
1 41787U 16059E   26195.95240121  .00000278  00000+0  56631-4 0  9996
2 41787  97.8177 193.9768 0029800 116.4385 243.9883 14.67693013523780
SCATSAT 1               
1 41790U 16059H   26195.73831606  .00000661  00000+0  93421-4 0  9994
2 41790  98.1179 259.7872 0055184 158.0023 202.3575 14.79586568105661
GOKTURK 1A              
1 41875U 16073A   26195.88076898  .00000196  00000+0  47632-4 0  9990
2 41875  98.1223  90.1176 0001419  80.1813 279.9549 14.62792958512873
RESOURCESAT-2A          
1 41877U 16074A   26195.94223199 -.00000236  00000+0 -87346-4 0  9991
2 41877  98.7528 269.2182 0002443  29.2729 330.8585 14.21607745498248
CARTOSAT-2D             
1 41948U 17008A   26195.95294834  .00001332  00000+0  66333-4 0  9992
2 41948  97.4100 254.7373 0006000 139.0958 221.0727 15.19282225521793
SENTINEL-2B             
1 42063U 17013A   26195.96974583 -.00000020  00000+0  90914-5 0  9991
2 42063  98.5692 270.3507 0001214  90.7203 269.4119 14.30814635488613
CARTOSAT-2E             
1 42767U 17036C   26195.97071193  .00001487  00000+0  73786-4 0  9997
2 42767  97.4266 255.3127 0003206 190.0560 170.0611 15.19251487502364
FORMOSAT-5              
1 42920U 17049A   26195.91397308  .00000037  00000+0  20533-4 0  9997
2 42920  98.2246 270.6067 0011363   4.7028 355.4272 14.50907751470696
SENTINEL-5P             
1 42969U 17064A   26195.83234929 -.00000002  00000+0  20025-4 0  9996
2 42969  98.7929 137.7679 0001129  93.1727 266.9578 14.19523253453480
SKYSAT-C11              
1 42987U 17068A   26195.92089592  .00017756  00000+0  22688-3 0  9993
2 42987  97.4376 345.9931 0001164 159.2858 200.8445 15.59313204487568
SKYSAT-C10              
1 42988U 17068B   26195.86940480  .00006119  00000+0  18199-3 0  9992
2 42988  97.4538 332.9997 0001427 107.6386 252.5013 15.35112497486606
SKYSAT-C9               
1 42989U 17068C   26195.88519892  .00007445  00000+0  17532-3 0  9997
2 42989  97.4457 334.2191 0008692  45.8055 314.3904 15.42209004487027
SKYSAT-C8               
1 42990U 17068D   26195.34261580  .00006159  00000+0  16986-3 0  9991
2 42990  97.4553 332.3717 0001229 102.6122 257.5260 15.37480933486483
SKYSAT-C7               
1 42991U 17068E   26195.92284226  .00005868  00000+0  16211-3 0  9995
2 42991  97.4566 333.9519 0005758  22.1951 337.9541 15.37438463486635
SKYSAT-C6               
1 42992U 17068F   26195.34510753  .00005312  00000+0  16309-3 0  9991
2 42992  97.4602 333.2232 0005141  91.5369 268.6463 15.34160841486486
CARTOSAT-2F             
1 43111U 18004A   26195.93739944  .00000968  00000+0  49171-4 0  9992
2 43111  97.4781 255.2988 0002779 135.1979 224.9480 15.19266891471545
GAOFEN-1 02             
1 43259U 18031A   26195.94903547  .00000635  00000+0  98580-4 0  9997
2 43259  98.0521 258.3962 0001509 289.0035  71.1011 14.76472630446798
GAOFEN-1 03             
1 43260U 18031B   26195.99490287  .00000347  00000+0  57342-4 0  9997
2 43260  98.0503 258.2975 0002427  16.2755 343.8532 14.76462386446796
GAOFEN-1 04             
1 43262U 18031D   26195.97060708 -.00000012  00000+0  56920-5 0  9990
2 43262  98.0521 258.4675 0001324  55.7017 304.4318 14.76469909446783
SENTINEL-3B             
1 43437U 18039A   26195.82086807  .00000033  00000+0  31777-4 0  9998
2 43437  98.6236 262.9549 0001135 119.3796 240.7498 14.26736193428066
GAOFEN-5 01             
1 43461U 18043A   26195.87462911  .00000123  00000+0  35459-4 0  9990
2 43461  98.4589 168.0454 0002106  32.8229 327.3102 14.60623120435731
GAOFEN-6                
1 43484U 18048A   26195.99314723  .00000066  00000+0  17098-4 0  9995
2 43484  98.0965 258.6942 0012131  82.2074 278.0512 14.76382178437498
